STARLINK-36363          
1 67890C 26035M   26176.21020833  .00120890  00000+0  37520-2 0  1762
2 67890  97.2833 109.2581 0001665  91.1354 255.4660 15.33382458    12
STARLINK-36816          
1 67891C 26035N   26176.27062500  .00090192  00000+0  27987-2 0  1763
2 67891  97.2836 108.3728 0001619  90.3012 147.7676 15.33405824    13
STARLINK-36813          
1 67892C 26035P   26176.27062500  .00091742  00000+0  28468-2 0  1761
2 67892  97.2840 109.4329 0001509 113.9258 115.9837 15.33405235    12
STARLINK-36803          
1 67893C 26035Q   26176.21437500  .00120220  00000+0  37296-2 0  1765
2 67893  97.2841 109.3550 0001604 106.5744 127.9739 15.33396772    12
STARLINK-36846          
1 67894C 26035R   26176.26576389  .00096241  00000+0  29871-2 0  1765
2 67894  97.2834 109.3066 0001811  89.8957 188.2173 15.33394311    15
STARLINK-36866          
1 67895C 26035S   26176.23173611  .00117180  00000+0  36374-2 0  1766
2 67895  97.2834 109.2989 0001928 109.2024  41.1893 15.33381083    18
STARLINK-36877          
1 67896C 26035T   26176.22826389  .00113970  00000+0  35372-2 0  1763
2 67896  97.2834 109.3607 0001569  86.3029 194.9241 15.33386475    12
STARLINK-36870          
1 67897C 26035U   26176.26020833  .00095798  00000+0  29723-2 0  1768
2 67897  97.2833 109.3796 0001646  95.1629 332.2717 15.33405905    16
STARLINK-36810          
1 67898C 26035V   26176.21159722  .00120280  00000+0  37341-2 0  1764
2 67898  97.2833 109.3057 0001829  92.8268   6.4543 15.33374815    15
STARLINK-36878          
1 67899C 26035W   26176.26576389  .00095068  00000+0  29478-2 0  1769
2 67899  97.2843 109.4188 0001537 101.5452  86.4855 15.33426772    16
STARLINK-36361          
1 67900C 26035X   26176.20256944  .00124560  00000+0  38671-2 0  1763
2 67900  97.2839 109.3521 0001615 111.2241  73.2630 15.33371898    18
STARLINK-36336          
1 67901C 26035Y   26176.25673611 -.00066394  00000+0 -20581-2 0  1766
2 67901  97.2832 109.3672 0001713  93.3904 299.7931 15.33518131    16
STARLINK-36876          
1 67902C 26035Z   26176.20395833  .00124740  00000+0  38716-2 0  1766
2 67902  97.2835 109.3432 0001659  88.7919  73.3482 15.33380980    13
STARLINK-36257          
1 67903C 26035AA  26176.20812500  .00120440  00000+0  37393-2 0  1765
2 67903  97.2834 109.2696 0001924 109.7643 255.3733 15.33371973    10
STARLINK-36814          
1 67904C 26036A   26176.20326389 -.00015816  00000+0 -57284-3 0  1766
2 67904  43.0036 358.5191 0001520 261.9379 334.6689 15.27587215    14
STARLINK-36729          
1 67905C 26036B   26176.19493056 -.00015065  00000+0 -54525-3 0  1762
2 67905  43.0036 358.5148 0001580 274.2116 290.5868 15.27609693    13
STARLINK-36763          
1 67906C 26036C   26176.22756944 -.00004389  00000+0 -15896-3 0  1760
2 67906  43.0036 358.2771 0001348 264.6273 141.1914 15.27583062    16
STARLINK-36742          
1 67907C 26036D   26176.26298611  .00002378  00000+0  86129-4 0  1769
2 67907  43.0034 358.0256 0001540 259.2256   2.8112 15.27581834    14
STARLINK-36827          
1 67908C 26036E   26176.25187500 -.00002789  00000+0 -10103-3 0  1769
2 67908  43.0029 358.0294 0001674 272.6135 309.4819 15.27575622    12
STARLINK-36822          
1 67909C 26036F   26176.22201389 -.00004980  00000+0 -18039-3 0  1760
2 67909  43.0023 358.1533 0001436 276.3644 162.5312 15.27579011    18
STARLINK-36847          
1 67910C 26036G   26176.24284722 -.00005787  00000+0 -20958-3 0  1765
2 67910  43.0025 357.9815 0001616 259.8272 315.0106 15.27583602    12
STARLINK-36736          
1 67911C 26036H   26176.20743056 -.00006508  00000+0 -23570-3 0  1767
2 67911  43.0026 358.0847 0001553 260.2822 154.9404 15.27584232    19
STARLINK-36676          
1 67912C 26036J   26176.21159722 -.00006168  00000+0 -22342-3 0  1768
2 67912  43.0025 358.0128 0001483 260.0425 199.3558 15.27580936    10
STARLINK-36690          
1 67913C 26036K   26176.22965278 -.00010009  00000+0 -36258-3 0  1761
2 67913  43.0020 357.8574 0001785 274.7393 305.2807 15.27578050    18
STARLINK-36724          
1 67914C 26036L   26176.21229167 -.00010025  00000+0 -36318-3 0  1766
2 67914  43.0027 357.8209 0001646 276.5380 264.4881 15.27578131    11
STARLINK-36723          
1 67915C 26036M   26176.22479167 -.00010523  00000+0 -38120-3 0  1761
2 67915  43.0016 357.8292 0001470 274.5154 299.9628 15.27578627    16
STARLINK-36721          
1 67916C 26036N   26176.25118056  .00032948  00000+0  11930-2 0  1764
2 67916  43.0031 357.5469 0001523 257.4274 158.8152 15.27573474    19
STARLINK-36722          
1 67917C 26036P   26176.23729167 -.00002697  00000+0 -97675-4 0  1766
2 67917  43.0036 357.5691 0001770 265.4747  95.6511 15.27585807    10
STARLINK-36341          
1 67918C 26036Q   26176.19562500 -.00013184  00000+0 -47759-3 0  1768
2 67918  43.0034 358.5665 0001413 278.1171 269.3621 15.27579287    14
STARLINK-36663          
1 67919C 26036R   26176.25395833  .00003127  00000+0  11327-3 0  1765
2 67919  43.0041 357.4304 0001506 267.8395 206.2674 15.27574010    14
STARLINK-36375          
1 67920C 26036S   26176.22965278 -.00003596  00000+0 -13022-3 0  1766
2 67920  43.0036 358.2746 0001544 266.1850 144.0289 15.27585560    12
STARLINK-36405          
1 67921C 26036T   26176.27479167  .00009636  00000+0  34899-3 0  1763
2 67921  43.0034 357.9800 0001451 261.4262  58.5411 15.27575161    12
STARLINK-36406          
1 67923C 26036V   26176.20812500 -.00010425  00000+0 -37765-3 0  1765
2 67923  43.0031 358.2593 0001622 274.4348  80.9180 15.27578301    14
STARLINK-36714          
1 67924C 26036W   26176.21368056 -.00006131  00000+0 -22201-3 0  1767
2 67924  43.0027 358.1559 0001553 265.9708 141.2082 15.27586689    19
STARLINK-36726          
1 67925C 26036X   26176.24631944 -.00005285  00000+0 -19140-3 0  1767
2 67925  43.0027 357.8980 0001573 260.1928   2.0603 15.27582689    16
STARLINK-36758          
1 67926C 26036Y   26176.19562500 -.00009638  00000+0 -34904-3 0  1764
2 67926  43.0024 358.1227 0001601 264.9653  99.3988 15.27587737    15
STARLINK-36728          
1 67927C 26036Z   26176.27687500  .00011873  00000+0  43007-3 0  1768
2 67927  43.0019 357.5525 0001443 270.4608 223.6963 15.27570684    18
STARLINK-36771          
1 67928C 26036AA  26176.25395833  .00000769  00000+0  27863-4 0  1767
2 67928  43.0023 357.7382 0001595 276.5026  70.2632 15.27573588    11
STARLINK-36809          
1 67929C 26036AB  26176.22826389 -.00010377  00000+0 -37584-3 0  1768
2 67929  43.0020 357.7798 0001680 262.1333 345.6069 15.27585985    14
STARLINK-36865          
1 67930C 26036AC  26176.22826389 -.00009131  00000+0 -33067-3 0  1768
2 67930  43.0031 357.6371 0001886 267.4791  36.8675 15.27586532    19
STARLINK-36781          
1 67931C 26036AD  26176.24770833  .00001564  00000+0  56647-4 0  1763
2 67931  43.0028 357.5809 0001775 263.1209 127.0669 15.27578772    18
STARLINK-36301          
1 67932C 26037A   26176.19423611  .00041737  00000+0  15117-2 0  1769
2 67932  43.0005 304.0181 0001625 257.7668 230.5471 15.27558093    11
STARLINK-36852          
1 67933C 26037B   26176.27687500  .00060548  00000+0  21937-2 0  1766
2 67933  42.9998 303.5233 0001875 252.4567 352.0868 15.27538573    11
STARLINK-36861          
1 67934C 26037C   26176.25951389  .00055070  00000+0  19938-2 0  1766
2 67934  43.0008 303.5513 0001722 261.2458 268.9027 15.27564093    13
STARLINK-36860          
1 67935C 26037D   26176.25673611  .00055007  00000+0  19916-2 0  1762
2 67935  43.0017 303.5271 0001716 258.9474 277.1217 15.27563940    12
STARLINK-36848          
1 67936C 26037E   26176.24354167  .00054501  00000+0  19735-2 0  1761
2 67936  43.0042 303.5053 0001870 259.9892 245.8684 15.27558636    11
STARLINK-36370          
1 67937C 26037F   26176.22201389  .00058239  00000+0  21088-2 0  1763
2 67937  43.0029 303.6727 0001826 258.6207 107.5074 15.27558752    19
STARLINK-36371          
1 67938C 26037G   26176.26090278  .00061122  00000+0  22127-2 0  1761
2 67938  43.0028 303.3612 0001823 264.1183 351.4952 15.27564744    14
STARLINK-36246          
1 67939C 26037H   26176.23034722  .00053939  00000+0  19536-2 0  1768
2 67939  43.0031 303.4930 0001325 275.1582 193.4414 15.27552976    16
STARLINK-36907          
1 67940C 26037J   26176.22270833  .00051658  00000+0  18705-2 0  1767
2 67940  43.0017 303.3115 0001521 259.0002 252.4654 15.27562225    12
STARLINK-36927          
1 67941C 26037K   26176.24145833  .00059959  00000+0  21689-2 0  1768
2 67941  43.0013 303.1239 0001824 265.3391  24.6368 15.27590496    13
STARLINK-36914          
1 67942C 26037L   26176.21506944  .00056022  00000+0  20285-2 0  1769
2 67942  43.0027 303.5041 0001610 258.1626 147.5771 15.27561165    12
STARLINK-36851          
1 67943C 26037M   26176.23798611  .00055848  00000+0  20221-2 0  1761
2 67943  43.0021 303.2805 0001583 254.6976 319.6532 15.27562204    12
STARLINK-36892          
1 67944C 26037N   26176.24562500  .00062200  00000+0  22519-2 0  1761
2 67944  43.0014 303.1487 0001528 260.2679  31.5158 15.27561902    10
STARLINK-36908          
1 67945C 26037P   26176.22965278  .00053771  00000+0  19473-2 0  1767
2 67945  43.0012 303.1328 0001485 256.6081 349.6995 15.27556975    17
STARLINK-36909          
1 67946C 26037Q   26176.19631944  .00045797  00000+0  16586-2 0  1765
2 67946  43.0016 303.2599 0001582 257.9154 186.1024 15.27558560    15
STARLINK-36920          
1 67947C 26037R   26176.21090278  .00046102  00000+0  16717-2 0  1765
2 67947  43.0010 303.1427 0001480 281.4442 264.0208 15.27517229    15
STARLINK-36873          
1 67948C 26037S   26176.24701389  .00062664  00000+0  22686-2 0  1764
2 67948  42.9998 302.9057 0001435 258.9386 139.5318 15.27563205    14
STARLINK-36863          
1 67949C 26037T   26176.22895833  .00058668  00000+0  21246-2 0  1761
2 67949  43.0003 302.9650 0001595 255.0443  58.1962 15.27554880    12
